{
  "type": "FeatureCollection",
  "features": [
    {
      "type": "Feature",
      "properties": {
        "norad_id": 67025,
        "name": "STARLINK-36178",
        "group": "last-30-days",
        "lat": -11.702774147852253,
        "lon": 117.3643838680306,
        "alt_km": 321.9860560022935,
        "timestamp": "2025-12-23T07:45:08.119034+00:00",
        "meta_object_name": "STARLINK-36178",
        "meta_object_id": "2025-293Y",
        "meta_epoch": "2025-12-22T22:00:03.000096",
        "meta_mean_motion": 15.85636592,
        "meta_eccentricity": 0.00039358,
        "meta_inclination": 69.9929,
        "meta_ra_of_asc_node": 294.2033,
        "meta_arg_of_pericenter": 268.1105,
        "meta_mean_anomaly": 126.7676,
        "meta_ephemeris_type": 0,
        "meta_classification_type": "U",
        "meta_norad_cat_id": 67025,
        "meta_element_set_no": 999,
        "meta_rev_at_epoch": 186,
        "meta_bstar": -0.0079192126,
        "meta_mean_motion_dot": -0.01674415,
        "meta_mean_motion_ddot": 0,
        "tle_line1": "1 67025U 25293Y   25356.91670139 -.01674415  00000+0 -79192-2 0  9997",
        "tle_line2": "2 67025  69.9929 294.2033 0003935 268.1105 126.7676 15.85636592  1862"
      },
      "geometry": {
        "type": "Point",
        "coordinates": [
          117.3643838680306,
          -11.702774147852253
        ]
      }
    },
    {
      "type": "Feature",
      "properties": {
        "norad_id": 67026,
        "name": "STARLINK-36176",
        "group": "last-30-days",
        "lat": -16.486323412303932,
        "lon": 119.22032029813971,
        "alt_km": 322.345939865495,
        "timestamp": "2025-12-23T07:45:08.119044+00:00",
        "meta_object_name": "STARLINK-36176",
        "meta_object_id": "2025-293Z",
        "meta_epoch": "2025-12-22T22:00:03.000096",
        "meta_mean_motion": 15.85598109,
        "meta_eccentricity": 0.00039404,
        "meta_inclination": 69.9927,
        "meta_ra_of_asc_node": 294.197,
        "meta_arg_of_pericenter": 267.5704,
        "meta_mean_anomaly": 132.48,
        "meta_ephemeris_type": 0,
        "meta_classification_type": "U",
        "meta_norad_cat_id": 67026,
        "meta_element_set_no": 999,
        "meta_rev_at_epoch": 186,
        "meta_bstar": -0.0079522863,
        "meta_mean_motion_dot": -0.01677754,
        "meta_mean_motion_ddot": 0,
        "tle_line1": "1 67026U 25293Z   25356.91670139 -.01677754  00000+0 -79523-2 0  9995",
        "tle_line2": "2 67026  69.9927 294.1970 0003940 267.5704 132.4800 15.85598109  1868"
      },
      "geometry": {
        "type": "Point",
        "coordinates": [
          119.22032029813971,
          -16.486323412303932
        ]
      }
    },
    {
      "type": "Feature",
      "properties": {
        "norad_id": 67027,
        "name": "STARLINK-36171",
        "group": "last-30-days",
        "lat": -14.407097007244458,
        "lon": 118.40358063942281,
        "alt_km": 322.2349332443655,
        "timestamp": "2025-12-23T07:45:08.119055+00:00",
        "meta_object_name": "STARLINK-36171",
        "meta_object_id": "2025-293AA",
        "meta_epoch": "2025-12-22T22:00:03.000096",
        "meta_mean_motion": 15.85606089,
        "meta_eccentricity": 0.00039743,
        "meta_inclination": 69.9925,
        "meta_ra_of_asc_node": 294.2,
        "meta_arg_of_pericenter": 268.491,
        "meta_mean_anomaly": 129.3205,
        "meta_ephemeris_type": 0,
        "meta_classification_type": "U",
        "meta_norad_cat_id": 67027,
        "meta_element_set_no": 999,
        "meta_rev_at_epoch": 186,
        "meta_bstar": -0.0079258253,
        "meta_mean_motion_dot": -0.0167351,
        "meta_mean_motion_ddot": 0,
        "tle_line1": "1 67027U 25293AA  25356.91670139 -.01673510  00000+0 -79258-2 0  9997",
        "tle_line2": "2 67027  69.9925 294.2000 0003974 268.4910 129.3205 15.85606089  1869"
      },
      "geometry": {
        "type": "Point",
        "coordinates": [
          118.40358063942281,
          -14.407097007244458
        ]
      }
    },
    {
      "type": "Feature",
      "properties": {
        "norad_id": 67028,
        "name": "STARLINK-36132",
        "group": "last-30-days",
        "lat": -21.290886713386286,
        "lon": 121.18707364447994,
        "alt_km": 322.7785520295565,
        "timestamp": "2025-12-23T07:45:08.119067+00:00",
        "meta_object_name": "STARLINK-36132",
        "meta_object_id": "2025-293AB",
        "meta_epoch": "2025-12-22T22:00:03.000096",
        "meta_mean_motion": 15.85552861,
        "meta_eccentricity": 0.00040117,
        "meta_inclination": 69.9929,
        "meta_ra_of_asc_node": 294.191,
        "meta_arg_of_pericenter": 270.323,
        "meta_mean_anomaly": 134.947,
        "meta_ephemeris_type": 0,
        "meta_classification_type": "U",
        "meta_norad_cat_id": 67028,
        "meta_element_set_no": 999,
        "meta_rev_at_epoch": 186,
        "meta_bstar": -0.0079419595,
        "meta_mean_motion_dot": -0.01672735,
        "meta_mean_motion_ddot": 0,
        "tle_line1": "1 67028U 25293AB  25356.91670139 -.01672735  00000+0 -79420-2 0  9997",
        "tle_line2": "2 67028  69.9929 294.1910 0004011 270.3230 134.9470 15.85552861  1867"
      },
      "geometry": {
        "type": "Point",
        "coordinates": [
          121.18707364447994,
          -21.290886713386286
        ]
      }
    },
    {
      "type": "Feature",
      "properties": {
        "norad_id": 67029,
        "name": "STARLINK-36190",
        "group": "last-30-days",
        "lat": -18.66626238506802,
        "lon": 120.09801343667608,
        "alt_km": 322.5565646195455,
        "timestamp": "2025-12-23T07:45:08.119087+00:00",
        "meta_object_name": "STARLINK-36190",
        "meta_object_id": "2025-293AC",
        "meta_epoch": "2025-12-22T22:00:03.000096",
        "meta_mean_motion": 15.85580268,
        "meta_eccentricity": 0.0003978,
        "meta_inclination": 69.993,
        "meta_ra_of_asc_node": 294.1947,
        "meta_arg_of_pericenter": 269.4712,
        "meta_mean_anomaly": 132.9376,
        "meta_ephemeris_type": 0,
        "meta_classification_type": "U",
        "meta_norad_cat_id": 67029,
        "meta_element_set_no": 999,
        "meta_rev_at_epoch": 186,
        "meta_bstar": -0.0079224356,
        "meta_mean_motion_dot": -0.01671059,
        "meta_mean_motion_ddot": 0,
        "tle_line1": "1 67029U 25293AC  25356.91670139 -.01671059  00000+0 -79224-2 0  9998",
        "tle_line2": "2 67029  69.9930 294.1947 0003978 269.4712 132.9376 15.85580268  1860"
      },
      "geometry": {
        "type": "Point",
        "coordinates": [
          120.09801343667608,
          -18.66626238506802
        ]
      }
    },
    {
      "type": "Feature",
      "properties": {
        "norad_id": 67030,
        "name": "STARLINK-36138",
        "group": "last-30-days",
        "lat": 28.68704431264121,
        "lon": -98.56382165348415,
        "alt_km": 329.0648719514202,
        "timestamp": "2025-12-23T07:45:08.119101+00:00",
        "meta_object_name": "STARLINK-36138",
        "meta_object_id": "2025-294A",
        "meta_epoch": "2025-12-22T22:00:03.000096",
        "meta_mean_motion": 15.80992952,
        "meta_eccentricity": 0.00016481,
        "meta_inclination": 42.9996,
        "meta_ra_of_asc_node": 119.8809,
        "meta_arg_of_pericenter": 277.5755,
        "meta_mean_anomaly": 63.517,
        "meta_ephemeris_type": 0,
        "meta_classification_type": "U",
        "meta_norad_cat_id": 67030,
        "meta_element_set_no": 999,
        "meta_rev_at_epoch": 175,
        "meta_bstar": -0.011036276,
        "meta_mean_motion_dot": -0.01929388,
        "meta_mean_motion_ddot": 0,
        "tle_line1": "1 67030U 25294A   25356.91670139 -.01929388  00000+0 -11036-1 0  9998",
        "tle_line2": "2 67030  42.9996 119.8809 0001648 277.5755  63.5170 15.80992952  1755"
      },
      "geometry": {
        "type": "Point",
        "coordinates": [
          -98.56382165348415,
          28.68704431264121
        ]
      }
    },
    {
      "type": "Feature",
      "properties": {
        "norad_id": 67031,
        "name": "STARLINK-36150",
        "group": "last-30-days",
        "lat": 27.6951397650446,
        "lon": -96.89264588159301,
        "alt_km": 329.34884739229256,
        "timestamp": "2025-12-23T07:45:08.119113+00:00",
        "meta_object_name": "STARLINK-36150",
        "meta_object_id": "2025-294B",
        "meta_epoch": "2025-12-22T22:00:03.000096",
        "meta_mean_motion": 15.80999595,
        "meta_eccentricity": 0.00017586,
        "meta_inclination": 42.9999,
        "meta_ra_of_asc_node": 119.8762,
        "meta_arg_of_pericenter": 284.8177,
        "meta_mean_anomaly": 58.0396,
        "meta_ephemeris_type": 0,
        "meta_classification_type": "U",
        "meta_norad_cat_id": 67031,
        "meta_element_set_no": 999,
        "meta_rev_at_epoch": 194,
        "meta_bstar": -0.011023461,
        "meta_mean_motion_dot": -0.0192808,
        "meta_mean_motion_ddot": 0,
        "tle_line1": "1 67031U 25294B   25356.91670139 -.01928080  00000+0 -11023-1 0  9993",
        "tle_line2": "2 67031  42.9999 119.8762 0001758 284.8177  58.0396 15.80999595  1948"
      },
      "geometry": {
        "type": "Point",
        "coordinates": [
          -96.89264588159301,
          27.6951397650446
        ]
      }
    }
  ]
}